$$SOE
2459580.500000000, A.D. 2022-Jan-01 00:00:00.0000, -3.302537171036234E+08, -1.572014201952581E+08, 1.593944110316418E+07,
2459587.500000000, A.D. 2022-Jan-08 00:00:00.0000, -3.241596812762354E+08, -1.664724629447960E+08, 1.525916900448344E+07,
2459594.500000000, A.D. 2022-Jan-15 00:00:00.0000, -3.177413697235531E+08, -1.755769242131809E+08, 1.456363165095203E+07,
2459601.500000000, A.D. 2022-Jan-22 00:00:00.0000, -3.110014853820140E+08, -1.845036425620129E+08, 1.385335434952652E+07,
2459608.500000000, A.D. 2022-Jan-29 00:00:00.0000, -3.039430765440845E+08, -1.932413440088534E+08, 1.312888792910104E+07,
2459615.500000000, A.D. 2022-Feb-05 00:00:00.0000, -2.965695545109069E+08, -2.017786482462516E+08, 1.239080969106625E+07,
2459622.500000000, A.D. 2022-Feb-12 00:00:00.0000, -2.888847096210242E+08, -2.101040769491632E+08, 1.163972407721123E+07,
2459629.500000000, A.D. 2022-Feb-19 00:00:00.0000, -2.808927269545803E+08, -2.182060618893786E+08, 1.087626336576174E+07,
2459636.500000000, A.D. 2022-Feb-26 00:00:00.0000, -2.725982029884456E+08, -2.260729536707642E+08, 1.010108845152186E+07,
2459643.500000000, A.D. 2022-Mar-05 00:00:00.0000, -2.640061629981882E+08, -2.336930317990792E+08, 9.314889638819322E+06,
2459650.500000000, A.D. 2022-Mar-12 00:00:00.0000, -2.551220789336555E+08, -2.410545162542741E+08, 8.518387414530486E+06,
2459657.500000000, A.D. 2022-Mar-19 00:00:00.0000, -2.459518876376125E+08, -2.481455806401632E+08, 7.712333189496219E+06,
2459664.500000000, A.D. 2022-Mar-26 00:00:00.0000, -2.365020093118086E+08, -2.549543670179521E+08, 6.897509997685805E+06,
2459671.500000000, A.D. 2022-Apr-02 00:00:00.0000, -2.267793660709185E+08, -2.614690025794935E+08, 6.074733133223996E+06,
2459678.500000000, A.D. 2022-Apr-09 00:00:00.0000, -2.167914002021469E+08, -2.676776182599499E+08, 5.244850690484017E+06,
2459685.500000000, A.D. 2022-Apr-16 00:00:00.0000, -2.065460916495887E+08, -2.735683687472590E+08, 4.408744016679376E+06,
2459692.500000000, A.D. 2022-Apr-23 00:00:00.0000, -1.960519758584042E+08, -2.791294529180169E+08, 3.567328269824848E+06,
2459699.500000000, A.D. 2022-Apr-30 00:00:00.0000, -1.853181637028572E+08, -2.843491370544760E+08, 2.721553057041690E+06,
2459706.500000000, A.D. 2022-May-07 00:00:00.0000, -1.743543602737305E+08, -2.892157829184918E+08, 1.872402696973175E+06,
2459713.500000000, A.D. 2022-May-14 00:00:00.0000, -1.631708809550672E+08, -2.937178777353861E+08, 1.020896212375343E+06,
2459720.500000000, A.D. 2022-May-21 00:00:00.0000, -1.517786666172630E+08, -2.978440654047663E+08, 1.680872855303288E+05,
2459727.500000000, A.D. 2022-May-28 00:00:00.0000, -1.401892981765179E+08, -3.015831799565371E+08, -6.849358745903224E+05,
2459734.500000000, A.D. 2022-Jun-04 00:00:00.0000, -1.284150099896976E+08, -3.049242816073288E+08, -1.537050821920529E+06,
2459741.500000000, A.D. 2022-Jun-11 00:00:00.0000, -1.164687016614699E+08, -3.078566954410585E+08, -2.387101351019412E+06,
2459748.500000000, A.D. 2022-Jun-18 00:00:00.0000, -1.043639479259677E+08, -3.103700527096508E+08, -3.233898184002250E+06,
2459755.500000000, A.D. 2022-Jun-25 00:00:00.0000, -9.211500625863473E+07, -3.124543347746118E+08, -4.076219890741304E+06,
2459762.500000000, A.D. 2022-Jul-02 00:00:00.0000, -7.973682175531743E+07, -3.140999197128883E+08, -4.912814078748658E+06,
2459769.500000000, A.D. 2022-Jul-09 00:00:00.0000, -6.724502854597189E+07, -3.152976313313757E+08, -5.742398892969489E+06,
2459776.500000000, A.D. 2022-Jul-16 00:00:00.0000, -5.465594744413085E+07, -3.160387893866948E+08, -6.563664750606477E+06,
2459783.500000000, A.D. 2022-Jul-23 00:00:00.0000, -4.198658166662989E+07, -3.163152607641248E+08, -7.375276120949224E+06,
2459790.500000000, A.D. 2022-Jul-30 00:00:00.0000, -2.925461016826680E+07, -3.161195147510871E+08, -8.175873648908302E+06,
2459797.500000000, A.D. 2022-Aug-06 00:00:00.0000, -1.647837462099849E+07, -3.154446814902498E+08, -8.964076914572939E+06,
2459804.500000000, A.D. 2022-Aug-13 00:00:00.0000, -3.676860497766049E+06, -3.142846105379533E+08, -9.738487540833578E+06,
2459811.500000000, A.D. 2022-Aug-20 00:00:00.0000, 9.130326517999640E+06, -3.126339296521501E+08, -1.049769255597021E+07,
2459818.500000000, A.D. 2022-Aug-27 00:00:00.0000, 2.192298919096960E+07, -3.104881040970727E+08, -1.124026808319439E+07,
2459825.500000000, A.D. 2022-Sep-03 00:00:00.0000, 3.468037300142077E+07, -3.078434960752993E+08, -1.196478339134954E+07,
2459832.500000000, A.D. 2022-Sep-10 00:00:00.0000, 4.738120636240878E+07, -3.046974237020788E+08, -1.266980531109722E+07,
2459839.500000000, A.D. 2022-Sep-17 00:00:00.0000, 6.000374701627528E+07, -3.010482189040791E+08, -1.335390301264101E+07,
2459846.500000000, A.D. 2022-Sep-24 00:00:00.0000, 7.252583481026320E+07, -2.968952836236963E+08, -1.401565314237614E+07,
2459853.500000000, A.D. 2022-Oct-01 00:00:00.0000, 8.492495115549918E+07, -2.922391436382692E+08, -1.465364532363041E+07,
2459860.500000000, A.D. 2022-Oct-08 00:00:00.0000, 9.717828555394472E+07, -2.870814987199033E+08, -1.526648799078888E+07,
2459867.500000000, A.D. 2022-Oct-15 00:00:00.0000, 1.092628081434318E+08, -2.814252671523363E+08, -1.585281434111857E+07,
2459874.500000000, A.D. 2022-Oct-22 00:00:00.0000, 1.211553458581589E+08, -2.752746254825408E+08, -1.641128830262618E+07,
2459881.500000000, A.D. 2022-Oct-29 00:00:00.0000, 1.328326643737952E+08, -2.686350452888995E+08, -1.694061091295028E+07,
2459888.500000000, A.D. 2022-Nov-05 00:00:00.0000, 1.442715574955502E+08, -2.615133234306385E+08, -1.743952702499644E+07,
2459895.500000000, A.D. 2022-Nov-12 00:00:00.0000, 1.554489414651280E+08, -2.539176037505980E+08, -1.790683199607846E+07,
2459902.500000000, A.D. 2022-Nov-19 00:00:00.0000, 1.663419527898825E+08, -2.458573904725270E+08, -1.834137830715257E+07,
2459909.500000000, A.D. 2022-Nov-26 00:00:00.0000, 1.769280490662710E+08, -2.373435530450861E+08, -1.874208209827292E+07,
2459916.500000000, A.D. 2022-Dec-03 00:00:00.0000, 1.871851120682478E+08, -2.283883218880658E+08, -1.910792956216684E+07,
2459923.500000000, A.D. 2022-Dec-10 00:00:00.0000, 1.970915521549152E+08, -2.190052745751511E+08, -1.943798312171714E+07,
2459930.500000000, A.D. 2022-Dec-17 00:00:00.0000, 2.066264129465091E+08, -2.092093121566268E+08, -1.973138731762047E+07,
2459937.500000000, A.D. 2022-Dec-24 00:00:00.0000, 2.157694752347198E+08, -1.990166255038763E+08, -1.998737434373996E+07,
2459944.500000000, A.D. 2022-Dec-31 00:00:00.0000, 2.245013592971956E+08, -1.884446515354091E+08, -2.020526917758820E+07,
2459951.500000000, A.D. 2023-Jan-07 00:00:00.0000, 2.328036245280481E+08, -1.775120184917597E+08, -2.038449416477875E+07,
2459958.500000000, A.D. 2023-Jan-14 00:00:00.0000, 2.406588632069331E+08, -1.662384800511556E+08, -2.052457276797865E+07,
2459965.500000000, A.D. 2023-Jan-21 00:00:00.0000, 2.480507865896722E+08, -1.546448419020087E+08, -2.062513262048522E+07,
2459972.500000000, A.D. 2023-Jan-28 00:00:00.0000, 2.549643058927747E+08, -1.427528815778275E+08, -2.068590818759641E+07,
2459979.500000000, A.D. 2023-Feb-04 00:00:00.0000, 2.613856069624920E+08, -1.305852593108347E+08, -2.070674273126142E+07,
2459986.500000000, A.D. 2023-Feb-11 00:00:00.0000, 2.673022159325813E+08, -1.181654210329998E+08, -2.068758940188859E+07,
2459993.500000000, A.D. 2023-Feb-18 00:00:00.0000, 2.727030550247104E+08, -1.055174953997260E+08, -2.062851150233258E+07,
2460000.500000000, A.D. 2023-Feb-25 00:00:00.0000, 2.775784881150967E+08, -9.266618614116240E+07, -2.052968195676499E+07,
2460007.500000000, A.D. 2023-Mar-04 00:00:00.0000, 2.819203556942802E+08, -7.963666093540691E+07, -2.039138200024228E+07,
2460014.500000000, A.D. 2023-Mar-11 00:00:00.0000, 2.857219989488285E+08, -6.645443806335104E+07, -2.021399911218074E+07,
2460021.500000000, A.D. 2023-Mar-18 00:00:00.0000, 2.889782728912275E+08, -5.314527217721319E+07, -1.999802423488536E+07,
2460028.500000000, A.D. 2023-Mar-25 00:00:00.0000, 2.916855487935627E+08, -3.973504050748257E+07, -1.974404834354933E+07,
2460035.500000000, A.D. 2023-Apr-01 00:00:00.0000, 2.938417065658515E+08, -2.624963035327206E+07, -1.945275842764218E+07,
2460042.500000000, A.D. 2023-Apr-08 00:00:00.0000, 2.954461168501464E+08, -1.271482780240690E+07, -1.912493278805393E+07,
2460049.500000000, A.D. 2023-Apr-15 00:00:00.0000, 2.964996110415883E+08, 8.437901137158638E+05, -1.876143559485356E+07,
2460056.500000000, A.D. 2023-Apr-22 00:00:00.0000, 2.970044417093285E+08, 1.440095577403863E+07, -1.836321119529719E+07,
2460063.500000000, A.D. 2023-Apr-29 00:00:00.0000, 2.969642369134843E+08, 2.793180520591068E+07, -1.793127831522289E+07,
2460070.500000000, A.D. 2023-May-06 00:00:00.0000, 2.963839475137302E+08, 4.141196724387429E+07, -1.746672392451635E+07,
2460077.500000000, A.D. 2023-May-13 00:00:00.0000, 2.952697874177008E+08, 5.481764610526790E+07, -1.697069682796310E+07,
2460084.500000000, A.D. 2023-May-20 00:00:00.0000, 2.936291679694018E+08, 6.812569642017673E+07, -1.644440111935129E+07,
2460091.500000000, A.D. 2023-May-27 00:00:00.0000, 2.914706276560493E+08, 8.131369035445677E+07, -1.588908959208029E+07,
2460098.500000000, A.D. 2023-Jun-03 00:00:00.0000, 2.888037581746566E+08, 9.435997665557718E+07, -1.530605717818349E+07,
2460105.500000000, A.D. 2023-Jun-10 00:00:00.0000, 2.856391278463168E+08, 1.072437315398621E+08, -1.469663448249482E+07,
2460112.500000000, A.D. 2023-Jun-17 00:00:00.0000, 2.819882033962479E+08, 1.199450014123188E+08, -1.406218148245518E+07,
2460119.500000000, A.D. 2023-Jun-24 00:00:00.0000, 2.778632712999591E+08, 1.324447376310693E+08, -1.340408146952136E+07,
2460126.500000000, A.D. 2023-Jul-01 00:00:00.0000, 2.732773597616419E+08, 1.447248243889159E+08, -1.272373523205093E+07,
2460133.500000000, A.D. 2023-Jul-08 00:00:00.0000, 2.682441603828663E+08, 1.567681008638172E+08, -1.202255529477195E+07,
2460140.500000000, A.D. 2023-Jul-15 00:00:00.0000, 2.627779489168174E+08, 1.685583752167300E+08, -1.130196035806200E+07,
$$EOE